#aV2022  1 26  0  0  0.00000000     288 DD+AD WGS84 FIT  NGA
## 2194 259200.00000000   300.00000000 59605 0.0000000000000
+   32     1  2  3  4  5  6  7  8  9 10 11 12 13 14 15 16 17
+         18 19 20 21 22 23 24 25 26 27 28 29 30 31 32  0  0
+          0  0  0  0  0  0  0  0  0  0  0  0  0  0  0  0  0
+          0  0  0  0  0  0  0  0  0  0  0  0  0  0  0  0  0
+          0  0  0  0  0  0  0  0  0  0  0  0  0  0  0  0  0
++         2  2  2  2  2  2  2  2  2  2  2  2  2  2  2  2  2
++         2  2  2  2  2  2  2  2  2  2  2  2  2  2  2  0  0
++         0  0  0  0  0  0  0  0  0  0  0  0  0  0  0  0  0
++         0  0  0  0  0  0  0  0  0  0  0  0  0  0  0  0  0
++         0  0  0  0  0  0  0  0  0  0  0  0  0  0  0  0  0
%c cc cc ccc ccc cccc cccc cccc cccc ccccc ccccc ccccc ccccc
%c cc cc ccc ccc cccc cccc cccc cccc ccccc ccccc ccccc ccccc
%f  0.0000000  0.000000000  0.00000000000  0.000000000000000
%f  0.0000000  0.000000000  0.00000000000  0.000000000000000
%i    0    0    0    0      0      0      0      0         0
%i    0    0    0    0      0      0      0      0         0
/*      NGA, ST. LOUIS,MO.                                  
/*   EPHEMERIS COMPUTED FROM 2 DAYS OF DATA                 
/*   EPOCHA v7 SMOOTHER                                     
/*   G2139 IERS2010 SATIGS SATAPC                           
*  2022  1 26 10 55  0.00000000
P  1 -13439.274255  18919.290513  12315.332127    447.515946                    
V  1   2227.313690 -16140.506847  26962.098095     -0.096710                    
P  2  14639.512900   2290.673456 -21383.052243   -649.544921                    
V  2  -4894.014571  28316.783871   -193.672461     -0.008615                    
P  3 -20770.364820  13066.714807 -10131.733066    -93.818929                    
V  3 -12858.603009   1329.963339  28462.817858     -0.158294                    
P  4 -11197.065188  10292.279950 -21772.437460   -193.070818                    
V  4 -19173.324322 -19923.795010    363.172264      0.019625                    
P  5  25741.565427  -4467.984409  -5369.157137    -69.221111                    
V  5  -5441.849584   4547.638570 -30654.029741     -0.013155                    
P  6   7140.501623  18628.411560 -17427.369985    182.136810                    
V  6  -6780.817400  21218.899090  19889.953682      0.113244                    
P  7  -4743.151820  25762.204157   2602.472699    305.204614                    
V  7  -4140.234661   1927.332383 -31619.925382      0.032812                    
P  8 -18874.147939    206.227568  18802.905252    -53.664317                    
V  8 -16589.596309 -17087.311632 -16107.976362     -0.014927                    
P  9     16.090878  18533.668993 -19084.641177   -356.631154                    
V  9 -18600.523308 -15414.505335 -15073.106139      0.013348                    
P 10  -7260.186643 -13444.070918  21887.187829   -303.421505                    
V 10  26294.404400  -7696.383013   3732.752737     -0.099380                    
P 11  14408.999880   4843.814204 -21783.671527    -81.321938                    
V 11  -8284.567765  26378.774526    372.352863     -0.384558                    
P 12  23012.439394 -10483.273465  -8150.886260   -161.516731                    
V 12  10294.725007    292.778087  29773.709571     -0.056662                    
P 13  20042.141939   8804.985447  14998.232501    251.443523                    
V 13  10467.058265  16242.741180 -23128.281262      0.060718                    
P 14   6035.546499  14273.911418  21569.107609    -75.857660                    
V 14 -26597.831863   6664.213154   2967.911883     -0.050494                    
P 15  18765.913574  -2922.952652  18286.111064    -88.652279                    
V 15  18105.561041  15935.191615 -15368.021672      0.028727                    
P 16 -25489.659384  -1086.168931  -8466.042567   -460.972708                    
V 16   9716.296543  -3757.194806 -29244.891126     -0.052265                    
P 17  11688.167893  22106.899550   9321.584350    566.584906                    
V 17  -8978.426743  -6980.572609  29226.600794      0.050541                    
P 18   5212.877266 -25854.121940   2625.354610    253.298206                    
V 18   3378.952545  -2540.435668 -31800.006592     -0.076261                    
P 19  16854.732330  20645.005147    371.362308    110.586607                    
V 19  -2112.468942    738.209182  32028.410268      0.049943                    
P 20  22083.584080   1482.317057 -14500.657722    516.996247                    
V 20 -15744.327539  10184.164062 -23194.593396     -0.001721                    
P 21 -15628.430196   9587.193283  19669.919384    156.884002                    
V 21   2535.497495 -23664.115610  14654.457082      0.007434                    
P 22 -18382.210885 -19190.897587  -1749.341770    204.196692                    
V 22    239.182376  -3774.237755  31544.535161      0.056072                    
P 23   5703.039846 -16321.621639  20123.494554      7.396600                    
V 23  24735.217554  -6636.144489 -12474.807093     -0.037275                    
P 24  14326.480881 -15558.411780  15520.915774    276.745250                    
V 24   -680.236174  20666.035158  21362.127980     -0.007579                    
P 25  12828.489015 -16088.142685 -16916.277974    276.445128                    
V 25  20774.473662  -4001.029498  20167.793319      0.054846                    
P 26 -17994.418651  -7866.353806 -18097.101551    177.753268                    
V 26  21017.689217  -8953.745556 -16771.632914      0.033207                    
P 27 -21781.109157 -10292.811609  11421.259225     89.141611                    
V 27  -9247.782244 -11492.590150 -27147.338520      0.195146                    
P 28  13982.848450  11339.369643  19977.397492    414.063830                    
V 28 -23672.776602   5499.424996  14035.785062     -0.080746                    
P 29   3870.648128 -16352.132927 -20598.819980   -472.199774                    
V 29  17862.054756  18924.564655 -11744.531302     -0.048229                    
P 30   1782.701199  24045.116074  10929.740594   -509.312978                    
V 30  -6819.584159  12562.579571 -26933.377120     -0.025266                    
P 31  -9217.435091 -16345.560580 -18731.860996   -161.746583                    
V 31   8031.017848 -22383.943667  16147.191030     -0.017902                    
P 32 -16021.571250 -20631.552681   5464.272447    -56.782767                    
V 32   6702.117169   2753.764521  30560.457552     -0.063311                    
EOF
